NORAD_CAT_ID,OBJECT_NAME,OBJECT_TYPE,EPOCH,MEAN_MOTION,ECCENTRICITY,INCLINATION,RA_OF_ASC_NODE,ARG_OF_PERICENTER,MEAN_ANOMALY,BSTAR,MEAN_MOTION_DOT,MEAN_MOTION_DDOT,TLE_LINE0,TLE_LINE1,TLE_LINE2,SEMIMAJOR_AXIS,PERIOD,APOGEE,PERIGEE,DECAYED
53135.0,STARLINK-4023,PAYLOAD,2022-07-21 18:00:00,15.88717654,0.0035713,53.2174,26.5994,52.4443,42.9637,-0.0042505,-0.01290386,0.0004713,0 STARLINK-4023,1 53135U 22083D   22202.75001157 -.01290386  47130-3 -42505-2 0  9993,2 53135  53.2174  26.5994 0035713  52.4443  42.9637 15.88717654  1304,6684.014,90.639,329.75,282.009,0.0
53135.0,STARLINK-4023,PAYLOAD,2022-07-22 04:00:00,15.87661065,0.0031436999999999,53.2175,24.4911,52.216,266.8578,-0.0048426,-0.01374811,0.00052387,0 STARLINK-4023,1 53135U 22083D   22203.16667824 -.01374811  52387-3 -48426-2 0  9992,2 53135  53.2175  24.4911 0031437  52.2160 266.8578 15.87661065  1364,6686.979,90.699,329.866,287.822,0.0
53135.0,STARLINK-4023,PAYLOAD,2022-07-22 06:00:00,15.87409952,0.0030635,53.2177,24.0693,51.8029,23.8202,-0.0046776,-0.01309209,0.00047809,0 STARLINK-4023,1 53135U 22083D   22203.25001157 -.01309209  47809-3 -46776-2 0  9991,2 53135  53.2177  24.0693 0030635  51.8029  23.8202 15.87409952  1301,6687.684,90.714,330.037,289.062,0.0
53135.0,STARLINK-4023,PAYLOAD,2022-07-22 12:00:00,15.86751572,0.002793,53.2177,22.806,51.1392,13.702,-0.0048705,-0.01310195,0.00047588,0 STARLINK-4023,1 53135U 22083D   22203.50001157 -.01310195  47588-3 -48705-2 0  9993,2 53135  53.2177  22.8060 0027930  51.1392  13.7020 15.86751572  1410,6689.534000000002,90.751,330.083,292.715,0.0
53135.0,STARLINK-4023,PAYLOAD,2022-07-22 20:00:01,15.85894203,0.0024529,53.2175,21.1264,49.9253,119.6075,-0.0052958,-0.01354872,0.00050197,0 STARLINK-4023,1 53135U 22083D   22203.83334491 -.01354872  50197-3 -52958-2 0  9994,2 53135  53.2175  21.1264 0024529  49.9253 119.6075 15.85894203  1478,6691.945,90.801,330.225,297.395,0.0
53135.0,STARLINK-4023,PAYLOAD,2022-07-22 22:00:00,15.85690238,0.0023393,53.2175,20.7066,50.2394,235.2981,-0.0054975,-0.0138897,0.00052429,0 STARLINK-4023,1 53135U 22083D   22203.91667824 -.01388970  52429-3 -54975-2 0  9999,2 53135  53.2175  20.7066 0023393  50.2394 235.2981 15.85690238  1307,6692.519,90.812,330.04,298.728,0.0
53135.0,STARLINK-4023,PAYLOAD,2022-07-23 04:00:00,15.85035521,0.0020807,53.2174,19.4455,51.4511,221.7202,-0.0057404,-0.01230745,0.0,0 STARLINK-4023,1 53135U 22083D   22204.16667824 -.01230745  00000-0 -57404-2 0  9998,2 53135  53.2174  19.4455 0020807  51.4511 221.7202 15.85035521  1522,6694.361999999999,90.85,330.156,302.298,0.0
53135.0,STARLINK-4023,PAYLOAD,2022-07-23 14:00:01,15.83904742,0.00175,53.2177,17.3485,50.0004,81.3183,-0.0057913999999999,-0.01174617,0.0,0 STARLINK-4023,1 53135U 22083D   22204.58335648 -.01174617  00000-0 -57914-2 0  9991,2 53135  53.2177  17.3485 0017500  50.0004  81.3183 15.83904742  1305,6697.547,90.915,331.1330000000001,307.692,0.0
53135.0,STARLINK-4023,PAYLOAD,2022-07-23 22:00:00,15.83050647,0.0013085999999999,53.2176,15.6755,49.7911,182.7202,-0.0063013999999999,-0.01235385,0.0,0 STARLINK-4023,1 53135U 22083D   22204.91667824 -.01235385  00000-0 -63014-2 0  9990,2 53135  53.2176  15.6755 0013086  49.7911 182.7202 15.83050647  1643,6699.956,90.964,330.589,313.0540000000001,0.0
53135.0,STARLINK-4023,PAYLOAD,2022-07-24 14:00:01,15.81265778,0.0007832999999999,53.2176,12.331,36.8439,35.0457,-0.0065942,-0.01186273,0.0,0 STARLINK-4023,1 53135U 22083D   22205.58334491 -.01186273  00000-0 -65942-2 0  9998,2 53135  53.2176  12.3310 0007833  36.8439  35.0457 15.81265778  1743,6704.996999999999,91.066,332.1140000000001,321.61,0.0
53135.0,STARLINK-4023,PAYLOAD,2022-07-24 22:00:00,15.8039645,0.0005268,53.2173,10.6643,27.1147,142.8703,-0.0069736,-0.01200233,0.0,0 STARLINK-4023,1 53135U 22083D   22205.91667824 -.01200233  00000-0 -69736-2 0  9992,2 53135  53.2173  10.6643 0005268  27.1147 142.8703 15.80396450  1303,6707.456,91.116,332.8540000000001,325.7870000000001,0.0
53135.0,STARLINK-4023,PAYLOAD,2022-07-25 14:00:01,15.78646757,0.0003816,53.2177,7.3326,0.0909,2.9241,-0.0076527,-0.01212394,0.0,0 STARLINK-4023,1 53135U 22083D   22206.58334491 -.01212394  00000-0 -76527-2 0  9994,2 53135  53.2177   7.3326 0003816   0.0909   2.9241 15.78646757  1309,6712.411,91.217,336.837,331.714,0.0
53135.0,STARLINK-4023,PAYLOAD,2022-07-25 20:00:01,15.77988101,0.0003181,53.2177,6.0874,3.5743,340.7373,-0.0078869,-0.01212162,0.0,0 STARLINK-4023,1 53135U 22083D   22206.83334491 -.01212162  00000-0 -78869-2 0  9996,2 53135  53.2177   6.0874 0003181   3.5743 340.7373 15.77988101  1942,6714.279,91.255,338.279,334.0080000000001,0.0
53135.0,STARLINK-4023,PAYLOAD,2022-07-25 22:00:00,15.77762633,0.0003361,53.2174,5.6722,6.0253,91.9221,-0.0078953,-0.01202486,0.0,0 STARLINK-4023,1 53135U 22083D   22206.91667824 -.01202486  00000-0 -78953-2 0  9996,2 53135  53.2174   5.6722 0003361   6.0253  91.9221 15.77762633  1307,6714.918000000002,91.268,339.04,334.526,0.0
53135.0,STARLINK-4023,PAYLOAD,2022-07-26 12:00:00,15.76227986,0.000425,53.2175,2.7674,335.3133,196.2234,-0.0084984999999999,-0.0120816,0.0,0 STARLINK-4023,1 53135U 22083D   22207.50001157 -.01208160  00000-0 -84985-2 0  9990,2 53135  53.2175   2.7674 0004250 335.3133 196.2234 15.76227986  2057,6719.276,91.357,343.997,338.285,0.0
53135.0,STARLINK-4023,PAYLOAD,2022-07-26 14:00:01,15.76002214,0.0004286,53.2175,2.3539,341.4279,303.2162,-0.0085014,-0.01197821,0.0,0 STARLINK-4023,1 53135U 22083D   22207.58334491 -.01197821  00000-0 -85014-2 0  9993,2 53135  53.2175   2.3539 0004286 341.4279 303.2162 15.76002214  1303,6719.918000000002,91.37,344.663,338.903,0.0
53135.0,STARLINK-4023,PAYLOAD,2022-07-26 20:00:01,15.75337311,0.0001669,53.2174,1.1135,284.6532,338.9135,-0.0086748,-0.01186403,0.0,0 STARLINK-4023,1 53135U 22083D   22207.83334491 -.01186403  00000-0 -86748-2 0  9990,2 53135  53.2174   1.1135 0001669 284.6532 338.9135 15.75337311  2105,6721.808000000001,91.409,344.795,342.552,0.0
53135.0,STARLINK-4023,PAYLOAD,2022-07-26 22:00:00,15.75127602,0.0001231999999999,53.2171,0.6998,299.2953,77.1093,-0.008878,-0.01200901,0.0,0 STARLINK-4023,1 53135U 22083D   22207.91667824 -.01200901  00000-0 -88780-2 0  9996,2 53135  53.2171   0.6998 0001232 299.2953  77.1093 15.75127602  1304,6722.405,91.421,345.098,343.44199999999995,0.0
53135.0,STARLINK-4023,PAYLOAD,2022-07-27 14:00:01,15.73336343,0.0001341999999999,53.2177,357.3945,50.1748,146.618,-0.0014703,-0.00203245,0.0,0 STARLINK-4023,1 53135U 22083D   22208.58334491 -.00203245  00000-0 -14703-2 0  9998,2 53135  53.2177 357.3945 0001342  50.1748 146.6180 15.73336343  2225,6727.505999999999,91.525,350.274,348.469,0.0
53135.0,STARLINK-4023,PAYLOAD,2022-07-27 22:00:00,15.73257799,0.0001339,53.2173,355.7453,59.2964,226.5131,-0.0010105,-0.00140442,0.0,0 STARLINK-4023,1 53135U 22083D   22208.91667824 -.00140442  00000-0 -10105-2 0  9995,2 53135  53.2173 355.7453 0001339  59.2964 226.5131 15.73257799  2279,6727.73,91.53,350.496,348.695,0.0
53135.0,STARLINK-4023,PAYLOAD,2022-07-28 04:00:00,15.73244721,0.0001231999999999,53.2172,354.5053,61.4249,201.1028,-0.00048181,-0.00067824,0.0,0 STARLINK-4023,1 53135U 22083D   22209.16667824 -.00067824  00000-0 -48181-3 0  9991,2 53135  53.2172 354.5053 0001232  61.4249 201.1028 15.73244721  2314,6727.768,91.531,350.462,348.80400000000014,0.0
53135.0,STARLINK-4023,PAYLOAD,2022-07-28 14:00:01,15.73209015,0.000118,53.2172,352.4443,55.2855,48.4391,1.9031e-05,2.053e-05,0.0,0 STARLINK-4023,1 53135U 22083D   22209.58334491  .00002053  00000-0  19031-4 0  9992,2 53135  53.2172 352.4443 0001180  55.2855  48.4391 15.73209015  1300,6727.869000000002,91.533,350.528,348.941,0.0
53135.0,STARLINK-4023,PAYLOAD,2022-07-28 22:00:00,15.73236799,0.0001369,53.2168,350.7961,48.7366,143.9233,-0.00050379,-0.00070842,0.0,0 STARLINK-4023,1 53135U 22083D   22209.91667824 -.00070842  00000-0 -50379-3 0  9990,2 53135  53.2168 350.7961 0001369  48.7366 143.9233 15.73236799  2434,6727.79,91.531,350.576,348.7340000000001,0.0
53135.0,STARLINK-4023,PAYLOAD,2022-07-29 14:00:01,15.7322375,0.0001448,53.2179,347.4959,53.9644,316.5273,-0.00032753,-0.00046381,0.0,0 STARLINK-4023,1 53135U 22083D   22210.58334491 -.00046381  00000-0 -32753-3 0  9993,2 53135  53.2179 347.4959 0001448  53.9644 316.5273 15.73223750  2537,6727.8269999999975,91.532,350.667,348.718,0.0
53135.0,STARLINK-4023,PAYLOAD,2022-07-29 22:00:00,15.73181891,0.0001416,53.2175,345.847,43.8408,55.5954,-0.00010508,-0.00015329,0.0,0 STARLINK-4023,1 53135U 22083D   22210.91667824 -.00015329  00000-0 -10508-3 0  9991,2 53135  53.2175 345.8470 0001416  43.8408  55.5954 15.73181891  1303,6727.946999999999,91.534,350.764,348.8590000000001,0.0
53135.0,STARLINK-4023,PAYLOAD,2022-07-30 12:00:00,15.73203622,0.0001653,53.2175,342.9604,55.3788,109.6559,1.0202e-05,8.12e-06,0.0,0 STARLINK-4023,1 53135U 22083D   22211.50001157  .00000812  00000-0  10202-4 0  9999,2 53135  53.2175 342.9604 0001653  55.3788 109.6559 15.73203622  2683,6727.885,91.533,350.862,348.63800000000015,0.0
53135.0,STARLINK-4023,PAYLOAD,2022-07-30 14:00:01,15.73202602,0.0001693,53.2173,342.5487,53.50100000000001,223.7671,2.426e-05,2.786e-05,0.0,0 STARLINK-4023,1 53135U 22083D   22211.58334491  .00002786  00000-0  24260-4 0  9998,2 53135  53.2173 342.5487 0001693  53.5010 223.7671 15.73202602  1306,6727.888000000001,91.533,350.892,348.61400000000015,0.0
53135.0,STARLINK-4023,PAYLOAD,2022-07-30 20:00:01,15.73186931,0.0001393,53.2176,341.3117,38.1691,215.9004,0.00052788,0.00074079,0.0,0 STARLINK-4023,1 53135U 22083D   22211.83334491  .00074079  00000-0  52788-3 0  9995,2 53135  53.2176 341.3117 0001393  38.1691 215.9004 15.73186931  2734,6727.932,91.534,350.735,348.86,0.0
53135.0,STARLINK-4023,PAYLOAD,2022-07-30 22:00:00,15.73222499,0.0001386999999999,53.2175,340.8989,37.2065,329.0878,0.00010102,0.00013594,0.0,0 STARLINK-4023,1 53135U 22083D   22211.91667824  .00013594  00000-0  10102-3 0  9992,2 53135  53.2175 340.8989 0001387  37.2065 329.0878 15.73222499  1300,6727.831,91.532,350.629,348.76300000000015,0.0
